1 44281U 19029AY  20079.83335648  .00006549  00000-0  39249-3 0  9992
2 44281  53.0012 256.3417 0002371  87.2838  64.6596 15.12122644 45484
1 44281U 19029AY  20079.91667824 +.00040604 +00000-0 +23345-2 0  9994
2 44281 053.0012 255.9640 0002345 086.2115 159.5644 15.12108829001754
1 44281U 19029AY  20080.66667824 -.00017542 +00000-0 -99118-3 0  9997
2 44281 053.0008 252.5620 0002359 090.6643 280.1371 15.12144100001783
1 44281U 19029AY  20080.66667824 -.00017542  00000-0 -99118-3 0  9997
2 44281  53.0008 252.5620 0002359  90.6643 280.1371 15.12144100 45613
1 44281U 19029AY  20082.25001157  .00344462  00000-0  18875-1 0  9996
2 44281  53.0011 245.3806 0002246  90.5534 264.2535 15.12069926 45859
1 44281U 19029AY  20082.58334491  .00024011  00000-0  13892-2 0  9992
2 44281  53.0013 243.8695 0002345  92.6348 277.7356 15.12146336 45903
1 44281U 19029AY  20082.66667824 -.00029907  00000-0 -17045-2 0  9995
2 44281  53.0011 243.4921 0002360  91.2325  13.0368 15.12153150 45913
1 44281U 19029AY  20083.91667824  .00033034  00000-0  19046-2 0  9991
2 44281  53.0019 237.8240 0002145  89.2062 343.4875 15.12105715 46107
1 44281U 19029AY  20084.56429638 -.00000231 +00000-0 +38717-5 0  9995
2 44281 053.0018 234.8857 0002308 110.9324 249.1914 15.12146586045477
1 44281U 19029AY  20084.58334491  .00098346  00000-0  55843-2 0  9998
2 44281  53.0023 234.8000 0002128  93.7868  10.0146 15.12112704 46203
1 44281U 19029AY  20084.91667824  .00038144  00000-0  21947-2 0  9992
2 44281  53.0023 233.2893 0002091  90.4211  28.9461 15.12111148 46255
1 44281U 19029AY  20085.58334491  .00170128  00000-0  95537-2 0  9992
2 44281  53.0027 230.2656 0002046  94.3210  56.1740 15.12103787 46359
1 44281U 19029AY  20085.83334491  .00047899  00000-0  27483-2 0  9993
2 44281  53.0027 229.1329 0002051  93.0746 339.1028 15.12106048 46399
1 44281U 19029AY  20086.83334491  .00042347  00000-0  24333-2 0  9998
2 44281  53.0025 224.5984 0001962  95.4052  23.4829 15.12110607 46544
1 44281U 19029AY  20086.91667824 +.00003339 +00000-0 +20855-3 0  9990
2 44281 053.0024 224.2202 0001951 095.8943 116.8781 15.12133699001758
1 44281U 19029AY  20087.58334491 -.00007024  00000-0 -38609-3 0  9998
2 44281  53.0022 221.1971 0001963 100.9034 143.0174 15.12140317 46658
1 44281U 19029AY  20087.91667824 +.00002330 +00000-0 +15070-3 0  9994
2 44281 053.0018 219.6858 0001878 098.9087 160.5863 15.12139612001755
1 44281U 19029AY  20088.25001157 +.00220625 +00000-0 +12306-1 0  9999
2 44281 053.0017 218.1728 0001914 104.7625 170.3252 15.12076861001756
1 44281U 19029AY  20088.58336806  .00023132  00000-0  13396-2 0  9992
2 44281  53.0015 216.6627 0001913 102.5588 188.2197 15.12134745 46805
1 44281U 19029AY  20088.91667824 -.00022229 +00000-0 -12615-2 0  9997
2 44281 053.0011 215.1513 0001806 101.8128 204.4140 15.12144552001753
1 44281U 19029AY  20089.25001157  .00150172  00000-0  84684-2 0  9998
2 44281  53.0009 213.6384 0001769 109.4464 212.3430 15.12062576 46916
1 44281U 19029AY  20089.33334491 +.00184696 +00000-0 +10359-1 0  9992
2 44281 053.0010 213.2607 0001788 109.7104 305.9584 15.12069489001771
1 44281U 19029AY  20089.83334491  .00024634  00000-0  14266-2 0  9994
2 44281  53.0005 210.9954 0001651 102.4531 156.5315 15.12099441 46993
1 44281U 19029AY  20090.25001157 +.00328808 +00000-0 +18076-1 0  9994
2 44281 053.0002 209.1040 0001730 108.9873 259.4397 15.12033328001765
1 44281U 19029AY  20090.91667824 -.00022110  00000-0 -12552-2 0  9999
2 44281  53.0000 206.0823 0001588 103.8195 295.6875 15.12128413 47167
1 44281U 19029AY  20091.00001157 -.00002384 +00000-0 -11973-3 0  9999
2 44281 053.0001 205.7039 0001610 106.6546 026.7425 15.12124694001778
1 44281U 19029AY  20091.91667824 -.00042839  00000-0 -24536-2 0  9995
2 44281  52.9999 201.5474 0001322 106.2672 339.9752 15.12151594 47316
1 44281U 19029AY  20092.25001157 +.00190685 +00000-0 +10681-1 0  9990
2 44281 053.0000 200.0344 0001336 113.0945 348.7393 15.12083999047362
1 44281U 19029AY  20092.58334491 -.00014905  00000-0 -83963-3 0  9993
2 44281  52.9999 198.5246 0001305 105.1425  12.2547 15.12133390 47411
1 44281U 19029AY  20093.25001157  .00196457  00000-0  10992-1 0  9999
2 44281  53.0004 195.4997 0001273 111.9642  36.5824 15.12093402 47516
1 44281U 19029AY  20093.41667824  .00088667  00000-0  50414-2 0  9993
2 44281  53.0005 194.7447 0001285 108.4550 227.8737 15.12126005 47548
1 44281U 19029AY  20093.83334491 -.00004109  00000-0 -21883-3 0  9990
2 44281  53.0004 192.8560 0001264 100.7236 345.0454 15.12116166 47608
1 44281U 19029AY  20093.91667824 +.00002225 +00000-0 +14471-3 0  9998
2 44281 053.0006 192.4776 0001281 103.7416 075.9082 15.12120570001618
1 44281U 19029AY  20094.58334491 +.00000577 +00000-0 +50208-4 0  9990
2 44281 053.0008 189.4554 0001297 101.6026 109.1506 15.12110084001712
1 44281U 19029AY  20094.91667824 -.00037550  00000-0 -21480-2 0  9997
2 44281  53.0010 187.9430 0001227 105.8150 120.4820 15.12134766 47761
1 44281U 19029AY  20095.16668981 +.00042793 +00000-0 +24593-2 0  9991
2 44281 053.0011 186.8085 0001269 112.9499 035.0872 15.12100939001805
1 44281U 19029AY  20095.50001157 -.00021280  00000-0 -12063-2 0  9994
2 44281  53.0011 185.2985 0001352 103.4801  60.0713 15.12158463 47854
1 44281U 19029AY  20095.91667824 -.00035925 +00000-0 -20517-2 0  9992
2 44281 053.0013 183.4084 0001274 106.0118 167.0333 15.12172336001759
1 44281U 19029AY  20096.16667824  .00034788  00000-0  20024-2 0  9997
2 44281  53.0012 182.2739 0001324 113.3194  81.4354 15.12141882 47959
1 44281U 19029AY  20096.58334491  .00014473  00000-0  84606-3 0  9990
2 44281  53.0013 180.3864 0001423 101.1368 203.0970 15.12112067 48013
1 44281U 19029AY  20096.91667824 -.00034966 +00000-0 -19981-2 0  9990
2 44281 053.0010 178.8739 0001354 106.8931 212.8933 15.12137480001803
1 44281U 19029AY  20097.58334491  .00014773  00000-0  86315-3 0  9993
2 44281  53.0009 175.8522 0001336 103.2282 247.6907 15.12114362 48170
1 44281U 19029AY  20097.91667824 -.00029405 +00000-0 -16763-2 0  9998
2 44281 053.0005 174.3395 0001293 109.7020 256.7752 15.12137317001860
1 44281U 19029AY  20098.58334491  .00021246  00000-0  12329-2 0  9990
2 44281  53.0000 171.3179 0001269 104.7676 292.8411 15.12111427 48326
1 44281U 19029AY  20098.91667824 -.00019824 +00000-0 -11232-2 0  9999
2 44281 052.9996 169.8049 0001248 111.7998 301.3677 15.12133105001762
1 44281U 19029AY  20099.58334491  .00029669  00000-0  17130-2 0  9993
2 44281  52.9990 166.7833 0001202 104.5671 339.7383 15.12109581 48470
1 44281U 19029AY  20099.91667824 -.00010820 +00000-0 -60450-3 0  9994
2 44281 052.9987 165.2701 0001193 112.1563 347.7106 15.12131413001760
1 44281U 19029AY  20100.25001157 -.00012917  00000-0 -72498-3 0  9999
2 44281  52.9984 163.7585 0001264 113.5129   1.9161 15.12142494 48573
1 44281U 19029AY  20100.58334491 +.00042863 +00000-0 +24627-2 0  9996
2 44281 052.9982 162.2483 0001134 102.1528 028.8604 15.12108947001760
1 44281U 19029AY  20100.91667824 -.00002618 +00000-0 -13318-3 0  9994
2 44281 052.9981 160.7351 0001126 110.6250 035.9544 15.12131730001761
1 44281U 19029AY  20101.25001157 -.00010670 +00000-0 -59566-3 0  9995
2 44281 052.9979 159.2235 0001209 110.6167 051.5279 15.12145453001767
1 44281U 19029AY  20101.58335648  .00043166  00000-0  24797-2 0  9997
2 44281  52.9979 157.7131 0001082  98.0734  79.7232 15.12111465 48772
1 44281U 19029AY  20101.91667824 +.00001791 +00000-0 +11976-3 0  9992
2 44281 052.9979 156.1998 0001067 107.9452 085.3604 15.12132260001755
1 44281U 19029AY  20102.25001157 -.00001567  00000-0 -72810-4 0  9999
2 44281  52.9979 154.6884 0001154 106.1161 102.7593 15.12145928 48877
1 44281U 19029AY  20102.58334491  .00045479  00000-0  26128-2 0  9992
2 44281  52.9980 153.1781 0001187  93.4960 130.9471 15.12084524 48928
1 44281U 19029AY  20102.91670139 +.00010237 +00000-0 +60398-3 0  9993
2 44281 052.9982 151.6646 0001160 103.1727 136.9383 15.12101258001756
1 44281U 19029AY  20103.25001157 -.00020824  00000-0 -11811-2 0  9999
2 44281  52.9982 150.1535 0001228 102.3257 153.1953 15.12126214 49026
1 44281U 19029AY  20103.58335648 +.00044529 +00000-0 +25584-2 0  9998
2 44281 052.9983 148.6431 0001154 090.8437 180.3012 15.12091908001761
1 44281U 19029AY  20103.91667824 +.00019487 +00000-0 +11328-2 0  9995
2 44281 052.9987 147.1298 0001136 101.6190 185.0137 15.12101819001759
1 44281U 19029AY  20104.25002315 -.00027354 +00000-0 -15566-2 0  9993
2 44281 052.9987 145.6187 0001305 099.0676 203.1853 15.12163895049173
1 44281U 19029AY  20104.91667824  .00031395  00000-0  18100-2 0  9993
2 44281  52.9990 142.5949 0001241 100.5812 232.8104 15.12134035 49282
1 44281U 19029AY  20105.25001157 -.00032450  00000-0 -18523-2 0  9996
2 44281  52.9991 141.0841 0001388  97.0518 251.9236 15.12140586 49335
1 44281U 19029AY  20105.58334491 +.00028637 +00000-0 +16542-2 0  9991
2 44281 052.9989 139.5735 0001315 088.6424 275.9051 15.12110863001826
1 44281U 19029AY  20105.75001157 -.00038709  00000-0 -22147-2 0  9991
2 44281  52.9990 138.8168 0001319  94.2323  98.0886 15.12142447 49404
1 44281U 19029AY  20105.83334491 -.00014553 +00000-0 -81947-3 0  9995
2 44281 052.9992 138.4385 0001308 097.3076 188.9102 15.12128736001852
1 44281U 19029AY  20106.58334491  .00021626  00000-0  12545-2 0  9992
2 44281  52.9989 135.0389 0001260  89.1314 322.0945 15.12113787 49539
1 44281U 19029AY  20106.91667824 +.00037284 +00000-0 +21464-2 0  9995
2 44281 052.9989 133.5257 0001253 102.2532 324.5425 15.12102753001828
1 44281U 19029AY  20107.16667824 -.00024036  00000-0 -13659-2 0  9993
2 44281  52.9990 132.3926 0001299 101.3571 247.0964 15.12141739 49627
1 44281U 19029AY  20107.58334491 +.00027223 +00000-0 +15750-2 0  9993
2 44281 052.9984 130.5044 0001369 091.7620 006.0764 15.12080367001769
1 44281U 19029AY  20107.83336806  .00006093  00000-0  36679-3 0  9999
2 44281  52.9986 129.3694 0001386 101.6208 277.9881 15.12081767 49722
1 44281U 19029AY  20107.91667824 +.00037263 +00000-0 +21473-2 0  9993
2 44281 052.9984 128.9914 0001374 103.4091 009.9575 15.12068222001819
